[
    {
        "Altitude(m)": 604983.0529509394,
        "Argument of Periapsis(deg)": 0.0,
        "Eccentricity": 0.0,
        "Inclination(deg)": 60.0,
        "Latitude(deg)": -0.0926326764715289,
        "Longitude(deg)": 10.083916551017536,
        "Mean Anomaly(deg)": -179.99999999999994,
        "RAAN(deg)": 290.0,
        "Satellite Name": "Test1 1287",
        "Satellite Number": 1287,
        "Semi-Major Axis(m)": 6980739.136638005,
        "Time(s)": 0
    },
    {
        "Altitude(m)": 605055.3323010027,
        "Argument of Periapsis(deg)": 0.00010418945913296404,
        "Eccentricity": 0.0,
        "Inclination(deg)": 60.0,
        "Latitude(deg)": -0.633042111124034,
        "Longitude(deg)": 10.35204233701626,
        "Mean Anomaly(deg)": -179.37989385453818,
        "RAAN(deg)": 289.99957995086027,
        "Satellite Name": "Test1 1287",
        "Satellite Number": 1287,
        "Semi-Major Axis(m)": 6980739.136638005,
        "Time(s)": 10
    },
    {
        "Altitude(m)": 605130.8207058577,
        "Argument of Periapsis(deg)": 0.0002083789182659281,
        "Eccentricity": 0.0,
        "Inclination(deg)": 60.0,
        "Latitude(deg)": -1.1734206256963162,
        "Longitude(deg)": 10.620225759040817,
        "Mean Anomaly(deg)": -178.75978770907636,
        "RAAN(deg)": 289.99915990172053,
        "Satellite Name": "Test1 1287",
        "Satellite Number": 1287,
        "Semi-Major Axis(m)": 6980739.136638005,
        "Time(s)": 20
    },
    {
        "Altitude(m)": 605209.5072022426,
        "Argument of Periapsis(deg)": 0.00031256837739889213,
        "Eccentricity": 0.0,
        "Inclination(deg)": 60.0,
        "Latitude(deg)": -1.7137511396664555,
        "Longitude(deg)": 10.888521204908832,
        "Mean Anomaly(deg)": -178.13968156361454,
        "RAAN(deg)": 289.9987398525808,
        "Satellite Name": "Test1 1287",
        "Satellite Number": 1287,
        "Semi-Major Axis(m)": 6980739.136638005,
        "Time(s)": 30
    },
    {
        "Altitude(m)": 605291.3793029466,
        "Argument of Periapsis(deg)": 0.0004167578365318562,
        "Eccentricity": 0.0,
        "Inclination(deg)": 60.0,
        "Latitude(deg)": -2.254016554461127,
        "Longitude(deg)": 11.156983630228243,
        "Mean Anomaly(deg)": -177.51957541815267,
        "RAAN(deg)": 289.99831980344106,
        "Satellite Name": "Test1 1287",
        "Satellite Number": 1287,
        "Semi-Major Axis(m)": 6980739.136638005,
        "Time(s)": 40
    },
    {
        "Altitude(m)": 605376.4230001774,
        "Argument of Periapsis(deg)": 0.0005209472956648203,
        "Eccentricity": 0.0,
        "Inclination(deg)": 60.0,
        "Latitude(deg)": -2.7941997435453545,
        "Longitude(deg)": 11.42566758181775,
        "Mean Anomaly(deg)": -176.89946927269082,
        "RAAN(deg)": 289.9978997543013,
        "Satellite Name": "Test1 1287",
        "Satellite Number": 1287,
        "Semi-Major Axis(m)": 6980739.136638005,
        "Time(s)": 50
    },
    {
        "Altitude(m)": 605464.6227696089,
        "Argument of Periapsis(deg)": 0.0006251367547977843,
        "Eccentricity": 0.0,
        "Inclination(deg)": 60.0,
        "Latitude(deg)": -3.3342835424697173,
        "Longitude(deg)": 11.69462773408288,
        "Mean Anomaly(deg)": -176.27936312722898,
        "RAAN(deg)": 289.99747970516154,
        "Satellite Name": "Test1 1287",
        "Satellite Number": 1287,
        "Semi-Major Axis(m)": 6980739.136638005,
        "Time(s)": 60
    },
    {
        "Altitude(m)": 605555.9615751948,
        "Argument of Periapsis(deg)": 0.0007293262139307483,
        "Eccentricity": 0.0,
        "Inclination(deg)": 60.0,
        "Latitude(deg)": -3.8742507388645775,
        "Longitude(deg)": 11.963919425505452,
        "Mean Anomaly(deg)": -175.6592569817672,
        "RAAN(deg)": 289.9970596560218,
        "Satellite Name": "Test1 1287",
        "Satellite Number": 1287,
        "Semi-Major Axis(m)": 6980739.136638005,
        "Time(s)": 70
    },
    {
        "Altitude(m)": 605650.4208747458,
        "Argument of Periapsis(deg)": 0.0008335156730637124,
        "Eccentricity": 0.0,
        "Inclination(deg)": 60.0,
        "Latitude(deg)": -4.414084062369406,
        "Longitude(deg)": 12.23359768239988,
        "Mean Anomaly(deg)": -175.0391508363053,
        "RAAN(deg)": 289.99663960688207,
        "Satellite Name": "Test1 1287",
        "Satellite Number": 1287,
        "Semi-Major Axis(m)": 6980739.136638005,
        "Time(s)": 80
    },
    {
        "Altitude(m)": 605747.9806262138,
        "Argument of Periapsis(deg)": 0.0009377051321966765,
        "Eccentricity": 0.0,
        "Inclination(deg)": 60.0,
        "Latitude(deg)": -4.953766174479035,
        "Longitude(deg)": 12.503717755712554,
        "Mean Anomaly(deg)": -174.41904469084358,
        "RAAN(deg)": 289.99621955774234,
        "Satellite Name": "Test1 1287",
        "Satellite Number": 1287,
        "Semi-Major Axis(m)": 6980739.136638005,
        "Time(s)": 90
    },
    {
        "Altitude(m)": 605848.6192947549,
        "Argument of Periapsis(deg)": 0.0010418945913296407,
        "Eccentricity": 0.0,
        "Inclination(deg)": 60.0,
        "Latitude(deg)": -5.493279658296333,
        "Longitude(deg)": 12.774335658020687,
        "Mean Anomaly(deg)": -173.79893854538173,
        "RAAN(deg)": 289.9957995086026,
        "Satellite Name": "Test1 1287",
        "Satellite Number": 1287,
        "Semi-Major Axis(m)": 6980739.136638005,
        "Time(s)": 100
    },
    {
        "Altitude(m)": 605952.3138604793,
        "Argument of Periapsis(deg)": 0.0011460840504626045,
        "Eccentricity": 0.0,
        "Inclination(deg)": 60.0,
        "Latitude(deg)": -6.03260700817855,
        "Longitude(deg)": 13.045507187884656,
        "Mean Anomaly(deg)": -173.1788323999199,
        "RAAN(deg)": 289.99537945946287,
        "Satellite Name": "Test1 1287",
        "Satellite Number": 1287,
        "Semi-Major Axis(m)": 6980739.136638005,
        "Time(s)": 110
    },
    {
        "Altitude(m)": 606059.0398269843,
        "Argument of Periapsis(deg)": 0.0012502735095955685,
        "Eccentricity": 0.0,
        "Inclination(deg)": 60.0,
        "Latitude(deg)": -6.571730619259643,
        "Longitude(deg)": 13.317288467330638,
        "Mean Anomaly(deg)": -172.55872625445807,
        "RAAN(deg)": 289.99495941032313,
        "Satellite Name": "Test1 1287",
        "Satellite Number": 1287,
        "Semi-Major Axis(m)": 6980739.136638005,
        "Time(s)": 120
    },
    {
        "Altitude(m)": 606168.7712305809,
        "Argument of Periapsis(deg)": 0.0013544629687285324,
        "Eccentricity": 0.0,
        "Inclination(deg)": 60.0,
        "Latitude(deg)": -7.1106327768358,
        "Longitude(deg)": 13.589736479618947,
        "Mean Anomaly(deg)": -171.93862010899622,
        "RAAN(deg)": 289.99453936118334,
        "Satellite Name": "Test1 1287",
        "Satellite Number": 1287,
        "Semi-Major Axis(m)": 6980739.136638005,
        "Time(s)": 130
    },
    {
        "Altitude(m)": 606281.4806502347,
        "Argument of Periapsis(deg)": 0.0014586524278614966,
        "Eccentricity": 0.0,
        "Inclination(deg)": 60.0,
        "Latitude(deg)": -7.649295645603459,
        "Longitude(deg)": 13.862908094454012,
        "Mean Anomaly(deg)": -171.31851396353437,
        "RAAN(deg)": 289.9941193120436,
        "Satellite Name": "Test1 1287",
        "Satellite Number": 1287,
        "Semi-Major Axis(m)": 6980739.136638005,
        "Time(s)": 140
    },
    {
        "Altitude(m)": 606397.1392182589,
        "Argument of Periapsis(deg)": 0.0015628418869944607,
        "Eccentricity": 0.0,
        "Inclination(deg)": 60.0,
        "Latitude(deg)": -8.187701258729007,
        "Longitude(deg)": 14.136860606411505,
        "Mean Anomaly(deg)": -170.69840781807255,
        "RAAN(deg)": 289.99369926290393,
        "Satellite Name": "Test1 1287",
        "Satellite Number": 1287,
        "Semi-Major Axis(m)": 6980739.136638005,
        "Time(s)": 150
    },
    {
        "Altitude(m)": 606515.7166316702,
        "Argument of Periapsis(deg)": 0.0016670313461274247,
        "Eccentricity": 0.0,
        "Inclination(deg)": 60.0,
        "Latitude(deg)": -8.725831506738212,
        "Longitude(deg)": 14.411652273738692,
        "Mean Anomaly(deg)": -170.0783016726107,
        "RAAN(deg)": 289.99327921376414,
        "Satellite Name": "Test1 1287",
        "Satellite Number": 1287,
        "Semi-Major Axis(m)": 6980739.136638005,
        "Time(s)": 160
    },
    {
        "Altitude(m)": 606637.1811642987,
        "Argument of Periapsis(deg)": 0.0017712208052603888,
        "Eccentricity": 0.0,
        "Inclination(deg)": 60.0,
        "Latitude(deg)": -9.263668126213206,
        "Longitude(deg)": 14.687341344684206,
        "Mean Anomaly(deg)": -169.45819552714886,
        "RAAN(deg)": 289.9928591646244,
        "Satellite Name": "Test1 1287",
        "Satellite Number": 1287,
        "Semi-Major Axis(m)": 6980739.136638005,
        "Time(s)": 170
    },
    {
        "Altitude(m)": 606761.4996795424,
        "Argument of Periapsis(deg)": 0.001875410264393353,
        "Eccentricity": 0.0,
        "Inclination(deg)": 60.0,
        "Latitude(deg)": -9.801192688275737,
        "Longitude(deg)": 14.963986597132626,
        "Mean Anomaly(deg)": -168.838089381687,
        "RAAN(deg)": 289.9924391154847,
        "Satellite Name": "Test1 1287",
        "Satellite Number": 1287,
        "Semi-Major Axis(m)": 6980739.136638005,
        "Time(s)": 180
    },
    {
        "Altitude(m)": 606888.6376438607,
        "Argument of Periapsis(deg)": 0.0019795997235263173,
        "Eccentricity": 0.0,
        "Inclination(deg)": 60.0,
        "Latitude(deg)": -10.338386586843928,
        "Longitude(deg)": 15.241647878700935,
        "Mean Anomaly(deg)": -168.2179832362252,
        "RAAN(deg)": 289.99201906634494,
        "Satellite Name": "Test1 1287",
        "Satellite Number": 1287,
        "Semi-Major Axis(m)": 6980739.136638005,
        "Time(s)": 190
    }
]